[
    {
        "Altitude(m)": 622200.0964933749,
        "Argument of Periapsis(deg)": 0.0,
        "Eccentricity": 0.0,
        "Inclination(deg)": 60.0,
        "Latitude(deg)": -52.16250867474492,
        "Longitude(deg)": 32.36088049520861,
        "Mean Anomaly(deg)": -65.45450000000002,
        "RAAN(deg)": 180.0,
        "Satellite Name": "Test1 810",
        "Satellite Number": 810,
        "Semi-Major Axis(m)": 6980739.136638005,
        "Time(s)": 0
    },
    {
        "Altitude(m)": 622058.263723843,
        "Argument of Periapsis(deg)": 0.00010418945913296404,
        "Eccentricity": 0.0,
        "Inclination(deg)": 60.0,
        "Latitude(deg)": -51.799256989793406,
        "Longitude(deg)": 33.12893620536213,
        "Mean Anomaly(deg)": -64.83439385453818,
        "RAAN(deg)": 179.99957995086024,
        "Satellite Name": "Test1 810",
        "Satellite Number": 810,
        "Semi-Major Axis(m)": 6980739.136638005,
        "Time(s)": 10
    }
]